IRIDIUM 159             
1 43578U 18061K   24075.93771401  .00000136  00000+0  41494-4 0  9998
2 43578  86.3974  40.7358 0002139  85.4213 274.7227 14.34217252295380
IRIDIUM 180             
1 43922U 19002A   24075.23951872  .00000365  00000+0  12323-3 0  9994
2 43922  86.4013 337.9511 0002120  86.5798 273.5641 14.34216344270897
IRIDIUM 176             
1 43923U 19002B   24075.45803780  .00000485  00000+0  73105-4 0  9992
2 43923  86.6138 337.8881 0002074  91.5611 268.5844 14.72195247278050
IRIDIUM 168             
1 43924U 19002C   24075.23318147  .00000212  00000+0  68563-4 0  9997
2 43924  86.4015 338.0080 0002122  84.4801 275.6637 14.34217098270871
IRIDIUM 173             
1 43925U 19002D   24075.22048769  .00000381  00000+0  12894-3 0  9999
2 43925  86.4009 337.9363 0002051  82.9572 277.1857 14.34215556270852
IRIDIUM 169             
1 43926U 19002E   24075.29457246  .00000523  00000+0  16438-3 0  9997
2 43926  86.4282   9.4931 0003188 136.0072 224.1381 14.38622814271775
IRIDIUM 172             
1 43927U 19002F   24075.70253405  .00000106  00000+0  30640-4 0  9994
2 43927  86.4012 337.7403 0002160  82.8565 277.2876 14.34217786270931
IRIDIUM 175             
1 43928U 19002G   24075.65619362  .00001171  00000+0  18199-3 0  9994
2 43928  86.1508 316.2376 0003519  71.8650 288.2949 14.72203158278078
